[
  { "carrier_name": "Alpha Logistics", "mc_number": "123456", "dot_number": "654321", "status": "Active", "city": "Chicago", "zip": "60601" },
  { "carrier_name": "Beta Freight", "mc_number": "789012", "dot_number": "210987", "status": "Inactive", "city": "Dallas", "zip": "75201" },
  { "carrier_name": "Gamma Movers", "mc_number": "111222", "dot_number": "333444", "status": "Active", "city": "Los Angeles", "zip": "90001" },
  { "carrier_name": "Delta Transport", "mc_number": "222333", "dot_number": "444555", "status": "Active", "city": "Houston", "zip": "77001" },
  { "carrier_name": "Epsilon Carriers", "mc_number": "333444", "dot_number": "555666", "status": "Inactive", "city": "Phoenix", "zip": "85001" },
  { "carrier_name": "Zeta Haulers", "mc_number": "444555", "dot_number": "666777", "status": "Active", "city": "Atlanta", "zip": "30301" },
  { "carrier_name": "Eta Freight Co", "mc_number": "555666", "dot_number": "777888", "status": "Inactive", "city": "Seattle", "zip": "98101" },
  { "carrier_name": "Theta Express", "mc_number": "666777", "dot_number": "888999", "status": "Active", "city": "Miami", "zip": "33101" },
  { "carrier_name": "Iota Freight Lines", "mc_number": "777888", "dot_number": "999000", "status": "Active", "city": "Denver", "zip": "80201" },
  { "carrier_name": "Kappa Cargo", "mc_number": "888999", "dot_number": "000111", "status": "Inactive", "city": "San Diego", "zip": "92101" },
  { "carrier_name": "Lambda Transport Inc", "mc_number": "999000", "dot_number": "111222", "status": "Active", "city": "Boston", "zip": "02101" },
  { "carrier_name": "Mu Movers LLC", "mc_number": "000111", "dot_number": "222333", "status": "Inactive", "city": "Portland", "zip": "97201" },
  { "carrier_name": "Nu Hauling", "mc_number": "121212", "dot_number": "343434", "status": "Active", "city": "Detroit", "zip": "48201" },
  { "carrier_name": "Xi Freight Solutions", "mc_number": "232323", "dot_number": "454545", "status": "Active", "city": "Minneapolis", "zip": "55401" },
  { "carrier_name": "Omicron Logistics", "mc_number": "343434", "dot_number": "565656", "status": "Inactive", "city": "Orlando", "zip": "32801" },
  { "carrier_name": "Pi Haulage Ltd", "mc_number": "454545", "dot_number": "676767", "status": "Active", "city": "Charlotte", "zip": "28201" },
  { "carrier_name": "Rho Freight Co", "mc_number": "565656", "dot_number": "787878", "status": "Inactive", "city": "Philadelphia", "zip": "19101" },
  { "carrier_name": "Sigma Transport", "mc_number": "676767", "dot_number": "898989", "status": "Active", "city": "Columbus", "zip": "43004" },
  { "carrier_name": "Tau Logistics Group", "mc_number": "787878", "dot_number": "909090", "status": "Active", "city": "Nashville", "zip": "37201" },
  { "carrier_name": "Upsilon Express", "mc_number": "898989", "dot_number": "101010", "status": "Inactive", "city": "Indianapolis", "zip": "46201" }
]
